STARLINK-36320          
1 68090U 26042X   26069.41668981 -.01346846  58198-3 -23133-2 0  9995
2 68090  53.1603 191.5103 0000575  87.6164 232.6473 16.01819246  2155
STARLINK-36324          
1 68091U 26042Y   26069.41668981 -.01375550  60391-3 -23823-2 0  9994
2 68091  53.1600 191.5134 0000703  62.7917 255.8977 16.01682035  2150
STARLINK-36896          
1 68092U 26042Z   26069.41668981 -.01365804  59779-3 -23305-2 0  9999
2 68092  53.1600 191.5071 0000769  80.0584 241.6909 16.01933765  2164
STARLINK-36251          
1 68093U 26042AA  26069.41668981 -.01356458  59184-3 -22837-2 0  9994
2 68093  53.1600 191.5005 0000599  86.2818 238.6098 16.02161574  2157
STARLINK-36787          
1 68094U 26042AB  26069.41668981 -.01364066  59998-3 -22555-2 0  9999
2 68094  53.1598 191.4882 0000704  72.9804 257.6785 16.02468256  2152
STARLINK-36790          
1 68095U 26042AC  26069.41668981 -.01282999  53369-3 -21794-2 0  9994
2 68095  53.1600 191.5040 0000785  99.3991 223.8332 16.01996837  2156
STARLINK-36328          
1 68096U 26042AD  26069.41668981 -.01500970  71682-3 -24506-2 0  9999
2 68096  53.1601 191.4842 0000766  58.5534 273.9433 16.02704330  2150
STARLINK-36853          
1 68097U 26042AE  26069.41668981 -.01299258  54822-3 -21623-2 0  9998
2 68097  53.1600 191.4919 0000772  94.1374 234.7541 16.02347142  2160
GLOBAL-34               
1 68098U 26043A   26069.38766798  .00015845  00000+0  51628-3 0  9990
2 68098  42.0217  71.4699 0006793 294.0971  65.9155 15.31518555   675
ELECTRON R/B            
1 68099U 26043B   26069.35387764  .03489833  78123-5  13547-2 0  9999
2 68099  42.0131  69.3460 0149893 297.4317  61.1370 16.01678362   693
ELECTRON KICK STAGE R/B 
1 68100U 26043C   26069.04309506  .03379654  81975-5  19249-2 0  9999
2 68100  42.1191  71.4890 0138357  51.8651 309.4591 16.00095135   637
