CCSDS_OMM_VERS = 2.0
CREATION_DATE  = 
ORIGINATOR     = 

OBJECT_NAME    = STARLINK-36320
OBJECT_ID      = 2026-042X
CENTER_NAME    = EARTH
REF_FRAME      = TEME
TIME_SYSTEM    = UTC
MEAN_ELEMENT_THEORY = SGP/SGP4

EPOCH          = 2026-03-10T10:00:01.999584
MEAN_MOTION    = 16.01819246
ECCENTRICITY   = .0000575
INCLINATION    = 53.1603
RA_OF_ASC_NODE = 191.5103
ARG_OF_PERICENTER = 87.6164
MEAN_ANOMALY   = 232.6473

EPHEMERIS_TYPE = 0
CLASSIFICATION_TYPE = U
NORAD_CAT_ID   = 68090
ELEMENT_SET_NO = 999
REV_AT_EPOCH   = 215
BSTAR          = -.23133E-2
MEAN_MOTION_DOT = -.1346846E-1
MEAN_MOTION_DDOT = .58198E-3

CCSDS_OMM_VERS = 2.0
CREATION_DATE  = 
ORIGINATOR     = 

OBJECT_NAME    = STARLINK-36324
OBJECT_ID      = 2026-042Y
CENTER_NAME    = EARTH
REF_FRAME      = TEME
TIME_SYSTEM    = UTC
MEAN_ELEMENT_THEORY = SGP/SGP4

EPOCH          = 2026-03-10T10:00:01.999584
MEAN_MOTION    = 16.01682035
ECCENTRICITY   = .0000703
INCLINATION    = 53.1600
RA_OF_ASC_NODE = 191.5134
ARG_OF_PERICENTER = 62.7917
MEAN_ANOMALY   = 255.8977

EPHEMERIS_TYPE = 0
CLASSIFICATION_TYPE = U
NORAD_CAT_ID   = 68091
ELEMENT_SET_NO = 999
REV_AT_EPOCH   = 215
BSTAR          = -.23823E-2
MEAN_MOTION_DOT = -.137555E-1
MEAN_MOTION_DDOT = .60391E-3

CCSDS_OMM_VERS = 2.0
CREATION_DATE  = 
ORIGINATOR     = 

OBJECT_NAME    = STARLINK-36896
OBJECT_ID      = 2026-042Z
CENTER_NAME    = EARTH
REF_FRAME      = TEME
TIME_SYSTEM    = UTC
MEAN_ELEMENT_THEORY = SGP/SGP4

EPOCH          = 2026-03-10T10:00:01.999584
MEAN_MOTION    = 16.01933765
ECCENTRICITY   = .0000769
INCLINATION    = 53.1600
RA_OF_ASC_NODE = 191.5071
ARG_OF_PERICENTER = 80.0584
MEAN_ANOMALY   = 241.6909

EPHEMERIS_TYPE = 0
CLASSIFICATION_TYPE = U
NORAD_CAT_ID   = 68092
ELEMENT_SET_NO = 999
REV_AT_EPOCH   = 216
BSTAR          = -.23305E-2
MEAN_MOTION_DOT = -.1365804E-1
MEAN_MOTION_DDOT = .59779E-3

CCSDS_OMM_VERS = 2.0
CREATION_DATE  = 
ORIGINATOR     = 

OBJECT_NAME    = STARLINK-36251
OBJECT_ID      = 2026-042AA
CENTER_NAME    = EARTH
REF_FRAME      = TEME
TIME_SYSTEM    = UTC
MEAN_ELEMENT_THEORY = SGP/SGP4

EPOCH          = 2026-03-10T10:00:01.999584
MEAN_MOTION    = 16.02161574
ECCENTRICITY   = .0000599
INCLINATION    = 53.1600
RA_OF_ASC_NODE = 191.5005
ARG_OF_PERICENTER = 86.2818
MEAN_ANOMALY   = 238.6098

EPHEMERIS_TYPE = 0
CLASSIFICATION_TYPE = U
NORAD_CAT_ID   = 68093
ELEMENT_SET_NO = 999
REV_AT_EPOCH   = 215
BSTAR          = -.22837E-2
MEAN_MOTION_DOT = -.1356458E-1
MEAN_MOTION_DDOT = .59184E-3

CCSDS_OMM_VERS = 2.0
CREATION_DATE  = 
ORIGINATOR     = 

OBJECT_NAME    = STARLINK-36787
OBJECT_ID      = 2026-042AB
CENTER_NAME    = EARTH
REF_FRAME      = TEME
TIME_SYSTEM    = UTC
MEAN_ELEMENT_THEORY = SGP/SGP4

EPOCH          = 2026-03-10T10:00:01.999584
MEAN_MOTION    = 16.02468256
ECCENTRICITY   = .0000704
INCLINATION    = 53.1598
RA_OF_ASC_NODE = 191.4882
ARG_OF_PERICENTER = 72.9804
MEAN_ANOMALY   = 257.6785

EPHEMERIS_TYPE = 0
CLASSIFICATION_TYPE = U
NORAD_CAT_ID   = 68094
ELEMENT_SET_NO = 999
REV_AT_EPOCH   = 215
BSTAR          = -.22555E-2
MEAN_MOTION_DOT = -.1364066E-1
MEAN_MOTION_DDOT = .59998E-3

CCSDS_OMM_VERS = 2.0
CREATION_DATE  = 
ORIGINATOR     = 

OBJECT_NAME    = STARLINK-36790
OBJECT_ID      = 2026-042AC
CENTER_NAME    = EARTH
REF_FRAME      = TEME
TIME_SYSTEM    = UTC
MEAN_ELEMENT_THEORY = SGP/SGP4

EPOCH          = 2026-03-10T10:00:01.999584
MEAN_MOTION    = 16.01996837
ECCENTRICITY   = .0000785
INCLINATION    = 53.1600
RA_OF_ASC_NODE = 191.5040
ARG_OF_PERICENTER = 99.3991
MEAN_ANOMALY   = 223.8332

EPHEMERIS_TYPE = 0
CLASSIFICATION_TYPE = U
NORAD_CAT_ID   = 68095
ELEMENT_SET_NO = 999
REV_AT_EPOCH   = 215
BSTAR          = -.21794E-2
MEAN_MOTION_DOT = -.1282999E-1
MEAN_MOTION_DDOT = .53369E-3

CCSDS_OMM_VERS = 2.0
CREATION_DATE  = 
ORIGINATOR     = 

OBJECT_NAME    = STARLINK-36328
OBJECT_ID      = 2026-042AD
CENTER_NAME    = EARTH
REF_FRAME      = TEME
TIME_SYSTEM    = UTC
MEAN_ELEMENT_THEORY = SGP/SGP4

EPOCH          = 2026-03-10T10:00:01.999584
MEAN_MOTION    = 16.02704330
ECCENTRICITY   = .0000766
INCLINATION    = 53.1601
RA_OF_ASC_NODE = 191.4842
ARG_OF_PERICENTER = 58.5534
MEAN_ANOMALY   = 273.9433

EPHEMERIS_TYPE = 0
CLASSIFICATION_TYPE = U
NORAD_CAT_ID   = 68096
ELEMENT_SET_NO = 999
REV_AT_EPOCH   = 215
BSTAR          = -.24506E-2
MEAN_MOTION_DOT = -.150097E-1
MEAN_MOTION_DDOT = .71682E-3

CCSDS_OMM_VERS = 2.0
CREATION_DATE  = 
ORIGINATOR     = 

OBJECT_NAME    = STARLINK-36853
OBJECT_ID      = 2026-042AE
CENTER_NAME    = EARTH
REF_FRAME      = TEME
TIME_SYSTEM    = UTC
MEAN_ELEMENT_THEORY = SGP/SGP4

EPOCH          = 2026-03-10T10:00:01.999584
MEAN_MOTION    = 16.02347142
ECCENTRICITY   = .0000772
INCLINATION    = 53.1600
RA_OF_ASC_NODE = 191.4919
ARG_OF_PERICENTER = 94.1374
MEAN_ANOMALY   = 234.7541

EPHEMERIS_TYPE = 0
CLASSIFICATION_TYPE = U
NORAD_CAT_ID   = 68097
ELEMENT_SET_NO = 999
REV_AT_EPOCH   = 216
BSTAR          = -.21623E-2
MEAN_MOTION_DOT = -.1299258E-1
MEAN_MOTION_DDOT = .54822E-3

CCSDS_OMM_VERS = 2.0
CREATION_DATE  = 
ORIGINATOR     = 

OBJECT_NAME    = GLOBAL-34
OBJECT_ID      = 2026-043A
CENTER_NAME    = EARTH
REF_FRAME      = TEME
TIME_SYSTEM    = UTC
MEAN_ELEMENT_THEORY = SGP/SGP4

EPOCH          = 2026-03-10T09:18:14.513472
MEAN_MOTION    = 15.31518555
ECCENTRICITY   = .0006793
INCLINATION    = 42.0217
RA_OF_ASC_NODE = 71.4699
ARG_OF_PERICENTER = 294.0971
MEAN_ANOMALY   = 65.9155

EPHEMERIS_TYPE = 0
CLASSIFICATION_TYPE = U
NORAD_CAT_ID   = 68098
ELEMENT_SET_NO = 999
REV_AT_EPOCH   = 67
BSTAR          = .51628E-3
MEAN_MOTION_DOT = .15845E-3
MEAN_MOTION_DDOT = 0

CCSDS_OMM_VERS = 2.0
CREATION_DATE  = 
ORIGINATOR     = 

OBJECT_NAME    = ELECTRON R/B
OBJECT_ID      = 2026-043B
CENTER_NAME    = EARTH
REF_FRAME      = TEME
TIME_SYSTEM    = UTC
MEAN_ELEMENT_THEORY = SGP/SGP4

EPOCH          = 2026-03-10T08:29:35.028096
MEAN_MOTION    = 16.01678362
ECCENTRICITY   = .0149893
INCLINATION    = 42.0131
RA_OF_ASC_NODE = 69.3460
ARG_OF_PERICENTER = 297.4317
MEAN_ANOMALY   = 61.1370

EPHEMERIS_TYPE = 0
CLASSIFICATION_TYPE = U
NORAD_CAT_ID   = 68099
ELEMENT_SET_NO = 999
REV_AT_EPOCH   = 69
BSTAR          = .13547E-2
MEAN_MOTION_DOT = .3489833E-1
MEAN_MOTION_DDOT = .78123E-5

CCSDS_OMM_VERS = 2.0
CREATION_DATE  = 
ORIGINATOR     = 

OBJECT_NAME    = ELECTRON KICK STAGE R/B
OBJECT_ID      = 2026-043C
CENTER_NAME    = EARTH
REF_FRAME      = TEME
TIME_SYSTEM    = UTC
MEAN_ELEMENT_THEORY = SGP/SGP4

EPOCH          = 2026-03-10T01:02:03.413184
MEAN_MOTION    = 16.00095135
ECCENTRICITY   = .01383578
INCLINATION    = 42.1191
RA_OF_ASC_NODE = 71.4890
ARG_OF_PERICENTER = 51.8651
MEAN_ANOMALY   = 309.4591

EPHEMERIS_TYPE = 0
CLASSIFICATION_TYPE = U
NORAD_CAT_ID   = 68100
ELEMENT_SET_NO = 999
REV_AT_EPOCH   = 63
BSTAR          = .19249383E-2
MEAN_MOTION_DOT = .3379654E-1
MEAN_MOTION_DDOT = .8197496E-5

